<?xml version="1.0" encoding="UTF-8"?>
<ndm xmlns:xsi="http://www.w3.org/2001/XMLSchema-instance" xsi:noNamespaceSchemaLocation="https://sanaregistry.org/r/ndmxml_unqualified/ndmxml-2.0.0-master-2.0.xsd">
<omm id="CCSDS_OMM_VERS" version="2.0">
<header><CREATION_DATE/><ORIGINATOR/></header><body><segment><metadata><OBJECT_NAME>IRIDIUM 36</OBJECT_NAME><OBJECT_ID>1997-056C</OBJECT_ID><CENTER_NAME>EARTH</CENTER_NAME><REF_FRAME>TEME</REF_FRAME><TIME_SYSTEM>UTC</TIME_SYSTEM><MEAN_ELEMENT_THEORY>SGP4</MEAN_ELEMENT_THEORY></metadata><data><meanElements><EPOCH>2024-04-30T03:20:54.823488</EPOCH><MEAN_MOTION>14.36758232</MEAN_MOTION><ECCENTRICITY>.0001998</ECCENTRICITY><INCLINATION>86.3985</INCLINATION><RA_OF_ASC_NODE>346.4722</RA_OF_ASC_NODE><ARG_OF_PERICENTER>86.8307</ARG_OF_PERICENTER><MEAN_ANOMALY>273.3118</MEAN_ANOMALY></meanElements><tleParameters><EPHEMERIS_TYPE>0</EPHEMERIS_TYPE><CLASSIFICATION_TYPE>U</CLASSIFICATION_TYPE><NORAD_CAT_ID>24967</NORAD_CAT_ID><ELEMENT_SET_NO>999</ELEMENT_SET_NO><REV_AT_EPOCH>39289</REV_AT_EPOCH><BSTAR>.22948E-3</BSTAR><MEAN_MOTION_DOT>.696E-5</MEAN_MOTION_DOT><MEAN_MOTION_DDOT>0</MEAN_MOTION_DDOT></tleParameters></data></segment></body></omm>
<omm id="CCSDS_OMM_VERS" version="2.0">
<header><CREATION_DATE/><ORIGINATOR/></header><body><segment><metadata><OBJECT_NAME>IRIDIUM 39</OBJECT_NAME><OBJECT_ID>1997-069D</OBJECT_ID><CENTER_NAME>EARTH</CENTER_NAME><REF_FRAME>TEME</REF_FRAME><TIME_SYSTEM>UTC</TIME_SYSTEM><MEAN_ELEMENT_THEORY>SGP4</MEAN_ELEMENT_THEORY></metadata><data><meanElements><EPOCH>2024-04-30T02:49:05.369664</EPOCH><MEAN_MOTION>14.47888597</MEAN_MOTION><ECCENTRICITY>.0016165</ECCENTRICITY><INCLINATION>86.3962</INCLINATION><RA_OF_ASC_NODE>28.1170</RA_OF_ASC_NODE><ARG_OF_PERICENTER>242.1968</ARG_OF_PERICENTER><MEAN_ANOMALY>117.7598</MEAN_ANOMALY></meanElements><tleParameters><EPHEMERIS_TYPE>0</EPHEMERIS_TYPE><CLASSIFICATION_TYPE>U</CLASSIFICATION_TYPE><NORAD_CAT_ID>25042</NORAD_CAT_ID><ELEMENT_SET_NO>999</ELEMENT_SET_NO><REV_AT_EPOCH>38942</REV_AT_EPOCH><BSTAR>.27965E-3</BSTAR><MEAN_MOTION_DOT>.1057E-4</MEAN_MOTION_DOT><MEAN_MOTION_DDOT>0</MEAN_MOTION_DDOT></tleParameters></data></segment></body></omm>
<omm id="CCSDS_OMM_VERS" version="2.0">
<header><CREATION_DATE/><ORIGINATOR/></header><body><segment><metadata><OBJECT_NAME>IRIDIUM 38</OBJECT_NAME><OBJECT_ID>1997-069E</OBJECT_ID><CENTER_NAME>EARTH</CENTER_NAME><REF_FRAME>TEME</REF_FRAME><TIME_SYSTEM>UTC</TIME_SYSTEM><MEAN_ELEMENT_THEORY>SGP4</MEAN_ELEMENT_THEORY></metadata><data><meanElements><EPOCH>2024-04-30T05:33:49.182336</EPOCH><MEAN_MOTION>14.37211487</MEAN_MOTION><ECCENTRICITY>.0003309</ECCENTRICITY><INCLINATION>86.3989</INCLINATION><RA_OF_ASC_NODE>46.8035</RA_OF_ASC_NODE><ARG_OF_PERICENTER>54.4864</ARG_OF_PERICENTER><MEAN_ANOMALY>305.6642</MEAN_ANOMALY></meanElements><tleParameters><EPHEMERIS_TYPE>0</EPHEMERIS_TYPE><CLASSIFICATION_TYPE>U</CLASSIFICATION_TYPE><NORAD_CAT_ID>25043</NORAD_CAT_ID><ELEMENT_SET_NO>999</ELEMENT_SET_NO><REV_AT_EPOCH>38688</REV_AT_EPOCH><BSTAR>.28174E-3</BSTAR><MEAN_MOTION_DOT>.858E-5</MEAN_MOTION_DOT><MEAN_MOTION_DDOT>0</MEAN_MOTION_DDOT></tleParameters></data></segment></body></omm>
<omm id="CCSDS_OMM_VERS" version="2.0">
<header><CREATION_DATE/><ORIGINATOR/></header><body><segment><metadata><OBJECT_NAME>IRIDIUM 42</OBJECT_NAME><OBJECT_ID>1997-077A</OBJECT_ID><CENTER_NAME>EARTH</CENTER_NAME><REF_FRAME>TEME</REF_FRAME><TIME_SYSTEM>UTC</TIME_SYSTEM><MEAN_ELEMENT_THEORY>SGP4</MEAN_ELEMENT_THEORY></metadata><data><meanElements><EPOCH>2024-04-29T21:06:21.173472</EPOCH><MEAN_MOTION>14.35515575</MEAN_MOTION><ECCENTRICITY>.0002677</ECCENTRICITY><INCLINATION>86.3985</INCLINATION><RA_OF_ASC_NODE>52.6142</RA_OF_ASC_NODE><ARG_OF_PERICENTER>74.7408</ARG_OF_PERICENTER><MEAN_ANOMALY>285.4084</MEAN_ANOMALY></meanElements><tleParameters><EPHEMERIS_TYPE>0</EPHEMERIS_TYPE><CLASSIFICATION_TYPE>U</CLASSIFICATION_TYPE><NORAD_CAT_ID>25077</NORAD_CAT_ID><ELEMENT_SET_NO>999</ELEMENT_SET_NO><REV_AT_EPOCH>38188</REV_AT_EPOCH><BSTAR>.27976E-3</BSTAR><MEAN_MOTION_DOT>.824E-5</MEAN_MOTION_DOT><MEAN_MOTION_DDOT>0</MEAN_MOTION_DDOT></tleParameters></data></segment></body></omm>
<omm id="CCSDS_OMM_VERS" version="2.0">
<header><CREATION_DATE/><ORIGINATOR/></header><body><segment><metadata><OBJECT_NAME>IRIDIUM 44</OBJECT_NAME><OBJECT_ID>1997-077B</OBJECT_ID><CENTER_NAME>EARTH</CENTER_NAME><REF_FRAME>TEME</REF_FRAME><TIME_SYSTEM>UTC</TIME_SYSTEM><MEAN_ELEMENT_THEORY>SGP4</MEAN_ELEMENT_THEORY></metadata><data><meanElements><EPOCH>2024-04-30T04:14:57.799104</EPOCH><MEAN_MOTION>14.39347021</MEAN_MOTION><ECCENTRICITY>.0001445</ECCENTRICITY><INCLINATION>86.3998</INCLINATION><RA_OF_ASC_NODE>35.5269</RA_OF_ASC_NODE><ARG_OF_PERICENTER>32.0773</ARG_OF_PERICENTER><MEAN_ANOMALY>328.0514</MEAN_ANOMALY></meanElements><tleParameters><EPHEMERIS_TYPE>0</EPHEMERIS_TYPE><CLASSIFICATION_TYPE>U</CLASSIFICATION_TYPE><NORAD_CAT_ID>25078</NORAD_CAT_ID><ELEMENT_SET_NO>999</ELEMENT_SET_NO><REV_AT_EPOCH>38430</REV_AT_EPOCH><BSTAR>.25874E-3</BSTAR><MEAN_MOTION_DOT>.823E-5</MEAN_MOTION_DOT><MEAN_MOTION_DDOT>0</MEAN_MOTION_DDOT></tleParameters></data></segment></body></omm>
<omm id="CCSDS_OMM_VERS" version="2.0">
<header><CREATION_DATE/><ORIGINATOR/></header><body><segment><metadata><OBJECT_NAME>IRIDIUM 45</OBJECT_NAME><OBJECT_ID>1997-082A</OBJECT_ID><CENTER_NAME>EARTH</CENTER_NAME><REF_FRAME>TEME</REF_FRAME><TIME_SYSTEM>UTC</TIME_SYSTEM><MEAN_ELEMENT_THEORY>SGP4</MEAN_ELEMENT_THEORY></metadata><data><meanElements><EPOCH>2024-04-29T20:58:24.330144</EPOCH><MEAN_MOTION>15.02030409</MEAN_MOTION><ECCENTRICITY>.0163991</ECCENTRICITY><INCLINATION>86.3736</INCLINATION><RA_OF_ASC_NODE>244.8981</RA_OF_ASC_NODE><ARG_OF_PERICENTER>55.6219</ARG_OF_PERICENTER><MEAN_ANOMALY>306.0399</MEAN_ANOMALY></meanElements><tleParameters><EPHEMERIS_TYPE>0</EPHEMERIS_TYPE><CLASSIFICATION_TYPE>U</CLASSIFICATION_TYPE><NORAD_CAT_ID>25104</NORAD_CAT_ID><ELEMENT_SET_NO>999</ELEMENT_SET_NO><REV_AT_EPOCH>38960</REV_AT_EPOCH><BSTAR>.7088E-3</BSTAR><MEAN_MOTION_DOT>.125E-3</MEAN_MOTION_DOT><MEAN_MOTION_DDOT>0</MEAN_MOTION_DDOT></tleParameters></data></segment></body></omm>
<omm id="CCSDS_OMM_VERS" version="2.0">
<header><CREATION_DATE/><ORIGINATOR/></header><body><segment><metadata><OBJECT_NAME>IRIDIUM 24</OBJECT_NAME><OBJECT_ID>1997-082B</OBJECT_ID><CENTER_NAME>EARTH</CENTER_NAME><REF_FRAME>TEME</REF_FRAME><TIME_SYSTEM>UTC</TIME_SYSTEM><MEAN_ELEMENT_THEORY>SGP4</MEAN_ELEMENT_THEORY></metadata><data><meanElements><EPOCH>2024-04-29T21:47:27.217824</EPOCH><MEAN_MOTION>14.41115561</MEAN_MOTION><ECCENTRICITY>.0011654</ECCENTRICITY><INCLINATION>86.3898</INCLINATION><RA_OF_ASC_NODE>255.3014</RA_OF_ASC_NODE><ARG_OF_PERICENTER>13.4213</ARG_OF_PERICENTER><MEAN_ANOMALY>346.7294</MEAN_ANOMALY></meanElements><tleParameters><EPHEMERIS_TYPE>0</EPHEMERIS_TYPE><CLASSIFICATION_TYPE>U</CLASSIFICATION_TYPE><NORAD_CAT_ID>25105</NORAD_CAT_ID><ELEMENT_SET_NO>999</ELEMENT_SET_NO><REV_AT_EPOCH>38367</REV_AT_EPOCH><BSTAR>.30221E-3</BSTAR><MEAN_MOTION_DOT>.993E-5</MEAN_MOTION_DOT><MEAN_MOTION_DDOT>0</MEAN_MOTION_DDOT></tleParameters></data></segment></body></omm>
<omm id="CCSDS_OMM_VERS" version="2.0">
<header><CREATION_DATE/><ORIGINATOR/></header><body><segment><metadata><OBJECT_NAME>IRIDIUM 51</OBJECT_NAME><OBJECT_ID>1998-018A</OBJECT_ID><CENTER_NAME>EARTH</CENTER_NAME><REF_FRAME>TEME</REF_FRAME><TIME_SYSTEM>UTC</TIME_SYSTEM><MEAN_ELEMENT_THEORY>SGP4</MEAN_ELEMENT_THEORY></metadata><data><meanElements><EPOCH>2024-04-30T01:58:13.496160</EPOCH><MEAN_MOTION>15.09635892</MEAN_MOTION><ECCENTRICITY>.014881</ECCENTRICITY><INCLINATION>86.3958</INCLINATION><RA_OF_ASC_NODE>254.7615</RA_OF_ASC_NODE><ARG_OF_PERICENTER>0.6637</ARG_OF_PERICENTER><MEAN_ANOMALY>359.4768</MEAN_ANOMALY></meanElements><tleParameters><EPHEMERIS_TYPE>0</EPHEMERIS_TYPE><CLASSIFICATION_TYPE>U</CLASSIFICATION_TYPE><NORAD_CAT_ID>25262</NORAD_CAT_ID><ELEMENT_SET_NO>999</ELEMENT_SET_NO><REV_AT_EPOCH>38437</REV_AT_EPOCH><BSTAR>.52578E-3</BSTAR><MEAN_MOTION_DOT>.11046E-3</MEAN_MOTION_DOT><MEAN_MOTION_DDOT>0</MEAN_MOTION_DDOT></tleParameters></data></segment></body></omm>

</ndm>
