IRIDIUM 36              
1 24967U 97056C   24121.13952342  .00000696  00000+0  22948-3 0  9992
2 24967  86.3985 346.4722 0001998  86.8307 273.3118 14.36758232392893
IRIDIUM 39              
1 25042U 97069D   24121.11742326  .00001057  00000+0  27965-3 0  9994
2 25042  86.3962  28.1170 0016165 242.1968 117.7598 14.47888597389424
IRIDIUM 38              
1 25043U 97069E   24121.23181924  .00000858  00000+0  28174-3 0  9990
2 25043  86.3989  46.8035 0003309  54.4864 305.6642 14.37211487386888
IRIDIUM 42              
1 25077U 97077A   24120.87941173  .00000824  00000+0  27976-3 0  9997
2 25077  86.3985  52.6142 0002677  74.7408 285.4084 14.35515575381884
IRIDIUM 44              
1 25078U 97077B   24121.17705786  .00000823  00000+0  25874-3 0  9994
2 25078  86.3998  35.5269 0001445  32.0773 328.0514 14.39347021384308
IRIDIUM 45              
1 25104U 97082A   24120.87389271  .00012500  00000+0  70880-3 0  9995
2 25104  86.3736 244.8981 0163991  55.6219 306.0399 15.02030409389600
IRIDIUM 24              
1 25105U 97082B   24120.90795391  .00000993  00000+0  30221-3 0  9992
2 25105  86.3898 255.3014 0011654  13.4213 346.7294 14.41115561383679
IRIDIUM 51              
1 25262U 98018A   24121.08210065  .00011046  00000+0  52578-3 0  9996
2 25262  86.3958 254.7615 0148810   0.6637 359.4768 15.09635892384377
